OBJECT_NAME,OBJECT_ID,EPOCH,MEAN_MOTION,ECCENTRICITY,INCLINATION,RA_OF_ASC_NODE,ARG_OF_PERICENTER,MEAN_ANOMALY,EPHEMERIS_TYPE,CLASSIFICATION_TYPE,NORAD_CAT_ID,ELEMENT_SET_NO,REV_AT_EPOCH,BSTAR,MEAN_MOTION_DOT,MEAN_MOTION_DDOT
SL-12 R/B(2),1985-042D,2026-06-15T00:04:54.215328,14.22005504,.0036214,71.1079,242.1300,331.0696,202.2374,0,U,15772,999,12822,.6876E-4,.105E-5,0
SL-16 R/B,1985-097B,2026-06-15T02:24:37.951200,14.16610497,.0005424,71.0034,295.4713,115.8184,56.5755,0,U,16182,999,10102,-.86971E-4,-.221E-5,0
COSMOS 1743,1986-034A,2026-06-14T21:52:32.620224,15.66765067,.0003799,82.5272,331.1512,281.7303,78.3531,0,U,16719,999,19543,.42289E-3,.44678E-3,0
SL-14 R/B,1986-046B,2026-06-14T23:56:36.414816,14.85669760,.0021584,82.4816,348.2446,266.1808,93.6941,0,U,16792,999,14085,.37258E-4,.348E-5,0
SL-14 R/B,1986-055B,2026-06-15T03:15:20.274912,14.85721895,.0019257,82.5205,35.0618,14.3631,105.3857,0,U,16882,999,13383,.38282E-4,.358E-5,0
AJISAI (EGS),1986-061A,2026-06-15T05:36:55.999008,12.44516860,.0011224,50.0065,153.4009,175.6674,9.7729,0,U,16908,999,48014,-.28464E-4,-.101E-5,0
SL-14 R/B,1987-024B,2026-06-14T23:53:49.147008,14.86211875,.0016907,82.5279,1.3106,301.1334,58.8223,0,U,17567,999,10258,.35117E-4,.333E-5,0
COSMOS 1833,1987-027A,2026-06-15T03:01:42.267360,14.13048449,.0022736,70.9174,121.2002,58.5734,301.7606,0,U,17589,999,2408,.19091E-3,.309E-5,0
SL-14 R/B,1987-038B,2026-06-15T04:12:36.351072,14.85444103,.0018706,82.5009,204.9672,197.9573,162.0984,0,U,17912,999,9370,.3251E-4,.305E-5,0
COSMOS 1867,1987-060A,2026-06-14T23:13:15.261600,14.31515574,.0016481,65.0116,34.2750,282.1461,77.7776,0,U,18187,999,3386,.22819E-4,-.39E-6,0
SL-14 R/B,1988-001B,2026-06-14T20:49:31.160928,14.85608149,.00164655,82.5131,103.9557,277.9704,81.9643,0,U,18749,999,5645,.3797E-4,.353E-5,0
SL-16 R/B,1988-039B,2026-06-15T03:33:00.088416,14.19629441,.0022396,71.0140,222.4703,196.2000,163.8412,0,U,19120,999,97221,-.18968E-4,-.88E-6,0
COSMOS 1953,1988-050A,2026-06-15T04:29:56.469696,15.29953603,.0012003,82.5085,60.0512,132.3773,227.8485,0,U,19210,999,5268,.22948E-3,.67E-4,0
SL-8 R/B,1988-053B,2026-06-15T01:56:02.646816,14.38966708,.0019157,74.0479,292.9404,89.0512,84.0769,0,U,19257,999,99060,.55273E-4,.145E-5,0
SL-14 R/B,1988-093B,2026-06-14T22:14:03.519168,14.85740353,.002214,82.5310,310.7673,77.4125,42.0535,0,U,19574,999,1545,.41275E-4,.385E-5,0
SL-16 R/B,1988-102B,2026-06-15T02:21:17.543808,14.16164815,.0015907,71.0001,306.5349,228.3315,131.6448,0,U,19650,999,94068,-.93991E-4,-.234E-5,0
SL-14 R/B,1989-080C,2026-06-15T01:58:38.669664,12.50569673,.1228866,82.5930,110.6599,322.2186,29.8462,0,U,20262,999,67232,.83838E-4,.281E-5,0
ARIANE 40 R/B,1990-005H,2026-06-15T04:02:39.096384,14.39926388,.0008806,98.2960,223.8472,271.3450,88.6730,0,U,20443,999,90683,.80067E-4,.21E-5,0
DELTA 2 R/B(1),1990-008B,2026-06-14T15:28:31.018944,15.68462821,.00653998,35.6000,252.6630,90.2292,270.5942,0,U,20453,999,94130,.59845723E-3,.79796E-3,0
COSMOS 2058,1990-010A,2026-06-15T03:36:08.969184,15.12000554,.0009443,82.4673,311.3633,8.2003,351.9379,0,U,20465,999,95696,.20972E-3,.3631E-4,0
SL-14 R/B,1990-010B,2026-06-15T01:51:04.203072,14.83645028,.0019271,82.5016,175.9265,343.4385,16.6198,0,U,20466,999,94292,.3568E-4,.319E-5,0
