{"fetched_at":"2026-06-15T17:14:21Z","count":8051,"tles":[{"name":"SL-14 R/B","line1":"1 20466U 90010B   26166.07713198  .00000319  00000+0  35680-4 0  9993","line2":"2 20466  82.5016 175.9265 0019271 343.4385  16.6198 14.83645028942925","category":"Other"},{"name":"SL-16 R/B","line1":"1 16182U 85097B   26166.10043925 -.00000221  00000+0 -86971-4 0  9993","line2":"2 16182  71.0034 295.4713 0005424 115.8184  56.5755 14.16610497101025","category":"Other"},{"name":"SL-14 R/B","line1":"1 18749U 88001B   26165.86772177  .00000353  00000+0  37970-4 0  9991","line2":"2 18749  82.5131 103.9557 0016465 277.9704  81.9643 14.85608149 56456","category":"Other"},{"name":"COSMOS 1953","line1":"1 19210U 88050A   26166.18745914  .00006700  00000+0  22948-3 0  9994","line2":"2 19210  82.5085  60.0512 0012003 132.3773 227.8485 15.29953603 52689","category":"Other"},{"name":"SL-14 R/B","line1":"1 19574U 88093B   26165.92642962  .00000385  00000+0  41275-4 0  9992","line2":"2 19574  82.5310 310.7673 0022140  77.4125  42.0535 14.85740353 15453","category":"Other"},{"name":"SL-14 R/B","line1":"1 16792U 86046B   26165.99764369  .00000348  00000+0  37258-4 0  9995","line2":"2 16792  82.4816 348.2446 0021584 266.1808  93.6941 14.85669760140850","category":"Other"},{"name":"SL-16 R/B","line1":"1 19650U 88102B   26166.09811972 -.00000234  00000+0 -93991-4 0  9993","line2":"2 19650  71.0001 306.5349 0015907 228.3315 131.6448 14.16164815940689","category":"Other"},{"name":"SL-16 R/B","line1":"1 19120U 88039B   26166.14791769 -.00000088  00000+0 -18968-4 0  9999","line2":"2 19120  71.0140 222.4703 0022396 196.2000 163.8412 14.19629441972215","category":"Other"},{"name":"DELTA 2 R/B(1)","line1":"1 20453U 90008B   26165.64480346  .00079796  00000+0  59846-3 0  9998","line2":"2 20453  35.6000 252.6630 0065399  90.2292 270.5942 15.68462821941309","category":"Other"},{"name":"SL-14 R/B","line1":"1 20262U 89080C   26166.08239201  .00000281  00000+0  83838-4 0  9997","line2":"2 20262  82.5930 110.6599 1228866 322.2186  29.8462 12.50569673672324","category":"Other"},{"name":"SL-14 R/B","line1":"1 17912U 87038B   26166.17542073  .00000305  00000+0  32510-4 0  9998","line2":"2 17912  82.5009 204.9672 0018706 197.9573 162.0984 14.85444103 93702","category":"Other"},{"name":"COSMOS 1743","line1":"1 16719U 86034A   26165.91148866  .00044678  00000+0  42289-3 0  9994","line2":"2 16719  82.5272 331.1512 0003799 281.7303  78.3531 15.66765067195438","category":"Other"},{"name":"ARIANE 40 R/B","line1":"1 20443U 90005H   26166.16850806  .00000210  00000+0  80067-4 0  9999","line2":"2 20443  98.2960 223.8472 0008806 271.3450  88.6730 14.39926388906832","category":"Other"},{"name":"SL-12 R/B(2)","line1":"1 15772U 85042D   26166.00340527  .00000105  00000+0  68760-4 0  9999","line2":"2 15772  71.1079 242.1300 0036214 331.0696 202.2374 14.22005504128223","category":"Other"},{"name":"COSMOS 1867","line1":"1 18187U 87060A   26165.96753775 -.00000039  00000+0  22819-4 0  9993","line2":"2 18187  65.0116  34.2750 0016481 282.1461  77.7776 14.31515574 33868","category":"Other"},{"name":"SL-8 R/B","line1":"1 19257U 88053B   26166.08058619  .00000145  00000+0  55273-4 0  9991","line2":"2 19257  74.0479 292.9404 0019157  89.0512  84.0769 14.38966708990605","category":"Other"},{"name":"SL-14 R/B","line1":"1 17567U 87024B   26165.99570772  .00000333  00000+0  35117-4 0  9992","line2":"2 17567  82.5279   1.3106 0016907 301.1334  58.8223 14.86211875102587","category":"Other"},{"name":"SL-14 R/B","line1":"1 16882U 86055B   26166.13565133  .00000358  00000+0  38282-4 0  9999","line2":"2 16882  82.5205  35.0618 0019257  14.3631 105.3857 14.85721895133831","category":"Other"},{"name":"COSMOS 2058","line1":"1 20465U 90010A   26166.15010381  .00003631  00000+0  20972-3 0  9992","line2":"2 20465  82.4673 311.3633 0009443   8.2003 351.9379 15.12000554956967","category":"Other"},{"name":"COSMOS 1833","line1":"1 17589U 87027A   26166.12618365  .00000309  00000+0  19091-3 0  9991","line2":"2 17589  70.9174 121.2002 0022736  58.5734 301.7606 14.13048449 24085","category":"Other"},{"name":"AJISAI (EGS)","line1":"1 16908U 86061A   26166.23398147 -.00000101  00000+0 -28464-4 0  9994","line2":"2 16908  50.0065 153.4009 0011224 175.6674   9.7729 12.44516860480148","category":"Other"}]}